{
  "norad_id": 68837,
  "name": "PROGRESS-MS 34",
  "history": [
    {
      "epoch": "2026-04-26T05:38:27.075840Z",
      "apogee_km": 334.34066562955286,
      "perigee_km": 320.79715140612007,
      "latitude_deg": -5.3066301310647226e-05,
      "longitude_deg": -101.20507738002506,
      "height_km": 321.7895837001894,
      "semi_major_axis_km": 6705.705908517836,
      "eccentricity": 0.00100985,
      "inclination_deg": 51.6342,
      "raan_deg": 197.6499,
      "arg_perigee_deg": 15.4664,
      "mean_anomaly_deg": 344.6644,
      "mean_motion_rev_day": 15.81015064
    }
  ]
}